ONEWEB-0282             
1 49000U 21060AK  26051.06110601  .00000049  00000+0  94085-4 0  9993
2 49000  87.8993 252.0895 0001585  98.2518 261.8793 13.16595527224190
ONEWEB-0283             
1 49001U 21060AL  26051.05001862 -.00000013  00000+0 -67365-4 0  9995
2 49001  87.8995 252.0918 0001444  95.8724 264.2571 13.16595480224206
ONEWEB-0284             
1 49002U 21060AM  26051.11969239 -.00000078  00000+0 -23811-3 0  9992
2 49002  87.8998 252.0686 0001938  95.2262 264.9090 13.16595414224199
ONEWEB-0285             
1 49075U 21075A   26050.88373940  .00000455  00000+0  12287-2 0  9990
2 49075  87.8980  13.9404 0001836  83.7260 276.4078 13.12444022219821
ONEWEB-0286             
1 49076U 21075B   26050.86583061  .00000113  00000+0  27911-3 0  9998
2 49076  87.8964  13.9726 0001919  74.7989 285.3352 13.12444997219174
ONEWEB-0287             
1 49077U 21075C   26050.99715432 -.00000104  00000+0 -30187-3 0  9993
2 49077  87.9120  29.1420 0002149  73.8925 286.2443 13.17649340218192
ONEWEB-0288             
1 49078U 21075D   26050.84223367 -.00000385  00000+0 -11052-2 0  9999
2 49078  87.8980  13.9435 0001983  81.5633 278.5720 13.12443213219795
ONEWEB-0289             
1 49079U 21075E   26050.88394844 -.00000040  00000+0 -13629-3 0  9994
2 49079  87.9121  29.1764 0002193  92.8949 267.2434 13.17649976218758
ONEWEB-0290             
1 49080U 21075F   26051.00894944 -.00000025  00000+0 -98565-4 0  9993
2 49080  87.9128  29.1192 0002099  99.6767 260.4601 13.17646761218187
ONEWEB-0291             
1 49081U 21075G   26050.99377506 -.00000011  00000+0 -60929-4 0  9999
2 49081  87.9128  29.1302 0002279  81.8340 278.3050 13.17648154218174
ONEWEB-0293             
1 49082U 21075H   26050.86721723  .00000008  00000+0 -11425-4 0  9992
2 49082  87.9117  29.1682 0002018  85.9578 274.1785 13.17648475218189
ONEWEB-0294             
1 49083U 21075J   26050.84900309 -.00000359  00000+0 -10322-2 0  9993
2 49083  87.8977  13.9443 0002084  88.2623 271.8744 13.12443988219186
ONEWEB-0295             
1 49084U 21075K   26050.86638278  .00000013  00000+0 -88170-6 0  9995
2 49084  87.9119  29.1730 0002212  77.4952 282.6427 13.17648819218140
ONEWEB-0296             
1 49085U 21075L   26050.90491853 -.00000103  00000+0 -32038-3 0  9997
2 49085  87.8981  13.9361 0002210  78.0125 282.1251 13.12442427219193
ONEWEB-0297             
1 49086U 21075M   26050.85917809 -.00000107  00000+0 -33349-3 0  9996
2 49086  87.8971  13.9720 0001957  77.6425 282.4923 13.12444106219798
ONEWEB-0298             
1 49087U 21075N   26050.94667021  .00000046  00000+0  86228-4 0  9990
2 49087  87.9120  29.1536 0001814  77.5748 282.5586 13.17650303218180
ONEWEB-0299             
1 49088U 21075P   26050.87227295  .00000051  00000+0  99205-4 0  9993
2 49088  87.9129  29.1371 0001993  78.5570 281.5785 13.17649403218155
