[{"OBJECT_NAME":"ONEWEB-0282","OBJECT_ID":"2021-060AK","EPOCH":"2026-02-20T01:27:59.559264","MEAN_MOTION":13.16595527,"ECCENTRICITY":0.00015851,"INCLINATION":87.8993,"RA_OF_ASC_NODE":252.0895,"ARG_OF_PERICENTER":98.2518,"MEAN_ANOMALY":261.8793,"EPHEMERIS_TYPE":0,"CLASSIFICATION_TYPE":"U","NORAD_CAT_ID":49000,"ELEMENT_SET_NO":999,"REV_AT_EPOCH":22419,"BSTAR":9.4084854e-5,"MEAN_MOTION_DOT":4.9e-7,"MEAN_MOTION_DDOT":0},{"OBJECT_NAME":"ONEWEB-0283","OBJECT_ID":"2021-060AL","EPOCH":"2026-02-20T01:12:01.608768","MEAN_MOTION":13.1659548,"ECCENTRICITY":0.00014448,"INCLINATION":87.8995,"RA_OF_ASC_NODE":252.0918,"ARG_OF_PERICENTER":95.8724,"MEAN_ANOMALY":264.2571,"EPHEMERIS_TYPE":0,"CLASSIFICATION_TYPE":"U","NORAD_CAT_ID":49001,"ELEMENT_SET_NO":999,"REV_AT_EPOCH":22420,"BSTAR":-6.7365373e-5,"MEAN_MOTION_DOT":-1.3e-7,"MEAN_MOTION_DDOT":0},{"OBJECT_NAME":"ONEWEB-0284","OBJECT_ID":"2021-060AM","EPOCH":"2026-02-20T02:52:21.422496","MEAN_MOTION":13.16595414,"ECCENTRICITY":0.00019381,"INCLINATION":87.8998,"RA_OF_ASC_NODE":252.0686,"ARG_OF_PERICENTER":95.2262,"MEAN_ANOMALY":264.909,"EPHEMERIS_TYPE":0,"CLASSIFICATION_TYPE":"U","NORAD_CAT_ID":49002,"ELEMENT_SET_NO":999,"REV_AT_EPOCH":22419,"BSTAR":-0.00023810611,"MEAN_MOTION_DOT":-7.8e-7,"MEAN_MOTION_DDOT":0},{"OBJECT_NAME":"ONEWEB-0285","OBJECT_ID":"2021-075A","EPOCH":"2026-02-19T21:12:35.084160","MEAN_MOTION":13.12444022,"ECCENTRICITY":0.0001836,"INCLINATION":87.898,"RA_OF_ASC_NODE":13.9404,"ARG_OF_PERICENTER":83.726,"MEAN_ANOMALY":276.4078,"EPHEMERIS_TYPE":0,"CLASSIFICATION_TYPE":"U","NORAD_CAT_ID":49075,"ELEMENT_SET_NO":999,"REV_AT_EPOCH":21982,"BSTAR":0.0012287,"MEAN_MOTION_DOT":4.55e-6,"MEAN_MOTION_DDOT":0},{"OBJECT_NAME":"ONEWEB-0286","OBJECT_ID":"2021-075B","EPOCH":"2026-02-19T20:46:47.764704","MEAN_MOTION":13.12444997,"ECCENTRICITY":0.0001919,"INCLINATION":87.8964,"RA_OF_ASC_NODE":13.9726,"ARG_OF_PERICENTER":74.7989,"MEAN_ANOMALY":285.3352,"EPHEMERIS_TYPE":0,"CLASSIFICATION_TYPE":"U","NORAD_CAT_ID":49076,"ELEMENT_SET_NO":999,"REV_AT_EPOCH":21917,"BSTAR":0.00027911,"MEAN_MOTION_DOT":1.13e-6,"MEAN_MOTION_DDOT":0},{"OBJECT_NAME":"ONEWEB-0287","OBJECT_ID":"2021-075C","EPOCH":"2026-02-19T23:55:54.133248","MEAN_MOTION":13.1764934,"ECCENTRICITY":0.00021492,"INCLINATION":87.912,"RA_OF_ASC_NODE":29.142,"ARG_OF_PERICENTER":73.8925,"MEAN_ANOMALY":286.2443,"EPHEMERIS_TYPE":0,"CLASSIFICATION_TYPE":"U","NORAD_CAT_ID":49077,"ELEMENT_SET_NO":999,"REV_AT_EPOCH":21819,"BSTAR":-0.0003018663,"MEAN_MOTION_DOT":-1.04e-6,"MEAN_MOTION_DDOT":0},{"OBJECT_NAME":"ONEWEB-0288","OBJECT_ID":"2021-075D","EPOCH":"2026-02-19T20:12:48.989088","MEAN_MOTION":13.12443213,"ECCENTRICITY":0.0001983,"INCLINATION":87.898,"RA_OF_ASC_NODE":13.9435,"ARG_OF_PERICENTER":81.5633,"MEAN_ANOMALY":278.572,"EPHEMERIS_TYPE":0,"CLASSIFICATION_TYPE":"U","NORAD_CAT_ID":49078,"ELEMENT_SET_NO":999,"REV_AT_EPOCH":21979,"BSTAR":-0.0011052,"MEAN_MOTION_DOT":-3.85e-6,"MEAN_MOTION_DDOT":0},{"OBJECT_NAME":"ONEWEB-0289","OBJECT_ID":"2021-075E","EPOCH":"2026-02-19T21:12:53.145216","MEAN_MOTION":13.17649976,"ECCENTRICITY":0.0002193,"INCLINATION":87.9121,"RA_OF_ASC_NODE":29.1764,"ARG_OF_PERICENTER":92.8949,"MEAN_ANOMALY":267.2434,"EPHEMERIS_TYPE":0,"CLASSIFICATION_TYPE":"U","NORAD_CAT_ID":49079,"ELEMENT_SET_NO":999,"REV_AT_EPOCH":21875,"BSTAR":-0.00013629,"MEAN_MOTION_DOT":-4.0e-7,"MEAN_MOTION_DDOT":0},{"OBJECT_NAME":"ONEWEB-0290","OBJECT_ID":"2021-075F","EPOCH":"2026-02-20T00:12:53.231616","MEAN_MOTION":13.17646761,"ECCENTRICITY":0.00020993,"INCLINATION":87.9128,"RA_OF_ASC_NODE":29.1192,"ARG_OF_PERICENTER":99.6767,"MEAN_ANOMALY":260.4601,"EPHEMERIS_TYPE":0,"CLASSIFICATION_TYPE":"U","NORAD_CAT_ID":49080,"ELEMENT_SET_NO":999,"REV_AT_EPOCH":21818,"BSTAR":-9.8565146e-5,"MEAN_MOTION_DOT":-2.5e-7,"MEAN_MOTION_DDOT":0},{"OBJECT_NAME":"ONEWEB-0291","OBJECT_ID":"2021-075G","EPOCH":"2026-02-19T23:51:02.165184","MEAN_MOTION":13.17648154,"ECCENTRICITY":0.00022795,"INCLINATION":87.9128,"RA_OF_ASC_NODE":29.1302,"ARG_OF_PERICENTER":81.834,"MEAN_ANOMALY":278.305,"EPHEMERIS_TYPE":0,"CLASSIFICATION_TYPE":"U","NORAD_CAT_ID":49081,"ELEMENT_SET_NO":999,"REV_AT_EPOCH":21817,"BSTAR":-6.0929308e-5,"MEAN_MOTION_DOT":-1.1e-7,"MEAN_MOTION_DDOT":0},{"OBJECT_NAME":"ONEWEB-0293","OBJECT_ID":"2021-075H","EPOCH":"2026-02-19T20:48:47.568672","MEAN_MOTION":13.17648475,"ECCENTRICITY":0.0002018,"INCLINATION":87.9117,"RA_OF_ASC_NODE":29.1682,"ARG_OF_PERICENTER":85.9578,"MEAN_ANOMALY":274.1785,"EPHEMERIS_TYPE":0,"CLASSIFICATION_TYPE":"U","NORAD_CAT_ID":49082,"ELEMENT_SET_NO":999,"REV_AT_EPOCH":21818,"BSTAR":-1.1425e-5,"MEAN_MOTION_DOT":8.0e-8,"MEAN_MOTION_DDOT":0},{"OBJECT_NAME":"ONEWEB-0294","OBJECT_ID":"2021-075J","EPOCH":"2026-02-19T20:22:33.866976","MEAN_MOTION":13.12443988,"ECCENTRICITY":0.0002084,"INCLINATION":87.8977,"RA_OF_ASC_NODE":13.9443,"ARG_OF_PERICENTER":88.2623,"MEAN_ANOMALY":271.8744,"EPHEMERIS_TYPE":0,"CLASSIFICATION_TYPE":"U","NORAD_CAT_ID":49083,"ELEMENT_SET_NO":999,"REV_AT_EPOCH":21918,"BSTAR":-0.0010322,"MEAN_MOTION_DOT":-3.59e-6,"MEAN_MOTION_DDOT":0},{"OBJECT_NAME":"ONEWEB-0295","OBJECT_ID":"2021-075K","EPOCH":"2026-02-19T20:47:35.472192","MEAN_MOTION":13.17648819,"ECCENTRICITY":0.0002212,"INCLINATION":87.9119,"RA_OF_ASC_NODE":29.173,"ARG_OF_PERICENTER":77.4952,"MEAN_ANOMALY":282.6427,"EPHEMERIS_TYPE":0,"CLASSIFICATION_TYPE":"U","NORAD_CAT_ID":49084,"ELEMENT_SET_NO":999,"REV_AT_EPOCH":21814,"BSTAR":-8.817e-7,"MEAN_MOTION_DOT":1.3e-7,"MEAN_MOTION_DDOT":0},{"OBJECT_NAME":"ONEWEB-0296","OBJECT_ID":"2021-075L","EPOCH":"2026-02-19T21:43:04.960992","MEAN_MOTION":13.12442427,"ECCENTRICITY":0.000221,"INCLINATION":87.8981,"RA_OF_ASC_NODE":13.9361,"ARG_OF_PERICENTER":78.0125,"MEAN_ANOMALY":282.1251,"EPHEMERIS_TYPE":0,"CLASSIFICATION_TYPE":"U","NORAD_CAT_ID":49085,"ELEMENT_SET_NO":999,"REV_AT_EPOCH":21919,"BSTAR":-0.00032038,"MEAN_MOTION_DOT":-1.03e-6,"MEAN_MOTION_DDOT":0},{"OBJECT_NAME":"ONEWEB-0297","OBJECT_ID":"2021-075M","EPOCH":"2026-02-19T20:37:12.986976","MEAN_MOTION":13.12444106,"ECCENTRICITY":0.0001957,"INCLINATION":87.8971,"RA_OF_ASC_NODE":13.972,"ARG_OF_PERICENTER":77.6425,"MEAN_ANOMALY":282.4923,"EPHEMERIS_TYPE":0,"CLASSIFICATION_TYPE":"U","NORAD_CAT_ID":49086,"ELEMENT_SET_NO":999,"REV_AT_EPOCH":21979,"BSTAR":-0.00033349,"MEAN_MOTION_DOT":-1.07e-6,"MEAN_MOTION_DDOT":0},{"OBJECT_NAME":"ONEWEB-0298","OBJECT_ID":"2021-075N","EPOCH":"2026-02-19T22:43:12.306144","MEAN_MOTION":13.17650303,"ECCENTRICITY":0.0001814,"INCLINATION":87.912,"RA_OF_ASC_NODE":29.1536,"ARG_OF_PERICENTER":77.5748,"MEAN_ANOMALY":282.5586,"EPHEMERIS_TYPE":0,"CLASSIFICATION_TYPE":"U","NORAD_CAT_ID":49087,"ELEMENT_SET_NO":999,"REV_AT_EPOCH":21818,"BSTAR":8.6228e-5,"MEAN_MOTION_DOT":4.6e-7,"MEAN_MOTION_DDOT":0},{"OBJECT_NAME":"ONEWEB-0299","OBJECT_ID":"2021-075P","EPOCH":"2026-02-19T20:56:04.382880","MEAN_MOTION":13.17649403,"ECCENTRICITY":0.0001993,"INCLINATION":87.9129,"RA_OF_ASC_NODE":29.1371,"ARG_OF_PERICENTER":78.557,"MEAN_ANOMALY":281.5785,"EPHEMERIS_TYPE":0,"CLASSIFICATION_TYPE":"U","NORAD_CAT_ID":49088,"ELEMENT_SET_NO":999,"REV_AT_EPOCH":21815,"BSTAR":9.9205e-5,"MEAN_MOTION_DOT":5.1e-7,"MEAN_MOTION_DDOT":0}]
